     2.100          NAVIGATION                              RINEX VERSION / TYPE
fic2rin                                 01/06/2015 00:39:55 PGM / RUN BY / DATE
                                                            END OF HEADER
11 15  1  5  1 59 44.0 -.548575073481D-03 -.272848410532D-11  .000000000000D+00
     .210000000000D+02 -.417812500000D+02  .556951770705D-08 -.304199361538D+01
    -.210851430893D-05  .156169401016D-01  .109858810902D-04  .515372733116D+04
     .935840000000D+05  .227242708206D-06  .239591139064D+00 -.484287738800D-07
     .892446788620D+00  .127375000000D+03  .137295952491D+01 -.812569561070D-08
     .413231498465D-09  .100000000000D+01  .182600000000D+04  .000000000000D+00
     .240000000000D+01  .000000000000D+00 -.121071934700D-07  .210000000000D+02
     .864060000000D+05  .400000000000D+01
15 15  1  5  1 59 44.0 -.224444083869D-03 -.227373675443D-11  .000000000000D+00
     .150000000000D+02  .153125000000D+01  .506128225129D-08 -.119387007673D+01
    -.577419996262D-07  .698798964731D-02  .964850187302D-05  .515357073402D+04
     .935840000000D+05  .124797224998D-06  .262497358791D+01 -.707805156708D-07
     .934675984618D+00  .175250000000D+03  .352986155999D+00 -.812355266429D-08
    -.444304221340D-09  .100000000000D+01  .182600000000D+04  .000000000000D+00
     .240000000000D+01  .000000000000D+00 -.102445483208D-07  .150000000000D+02
     .864060000000D+05  .400000000000D+01
 1 15  1  5  2  0  0.0 -.104964710772D-04  .341060513165D-12  .000000000000D+00
     .320000000000D+02 -.196875000000D+01  .428910722996D-08 -.258495309831D+01
    -.502914190292D-07  .377656519413D-02  .101644545794D-04  .515367110825D+04
     .936000000000D+05  .372529029846D-08  .579803351868D+00 -.186264514923D-07
     .961803133498D+00  .185125000000D+03  .434964819928D+00 -.772246452879D-08
     .621097299767D-09  .100000000000D+01  .182600000000D+04  .000000000000D+00
     .240000000000D+01  .000000000000D+00  .558793544769D-08  .320000000000D+02
     .864060000000D+05  .400000000000D+01
 2 15  1  5  2  0  0.0  .539968721569D-03  .227373675443D-11  .000000000000D+00
     .440000000000D+02  .715625000000D+01  .474305471012D-08 -.191661449142D+01
     .292435288429D-06  .141317457892D-01  .977702438831D-05  .515374288940D+04
     .936000000000D+05  .106170773506D-06  .545337335466D+00 -.232830643654D-06
     .940421601226D+00  .179875000000D+03 -.234699065667D+01 -.779103881375D-08
     .676456748567D-09  .100000000000D+01  .182600000000D+04  .000000000000D+00
     .240000000000D+01  .000000000000D+00 -.204890966415D-07  .440000000000D+02
     .864060000000D+05  .400000000000D+01
 3 15  1  5  2  0  0.0  .126599799842D-03  .263753463514D-10  .000000000000D+00
     .390000000000D+02  .137500000000D+01  .495806366611D-08 -.168735575257D+00
     .141561031342D-06  .966126914136D-03  .459700822830D-05  .515376383400D+04
     .936000000000D+05  .167638063431D-07  .162044727048D+01  .111758708954D-07
     .958886304526D+00  .288656250000D+03 -.301391073919D+01 -.823212861549D-08
     .653598653579D-10  .100000000000D+01  .182600000000D+04  .000000000000D+00
     .240000000000D+01  .000000000000D+00  .558793544769D-08  .390000000000D+02
     .864060000000D+05  .400000000000D+01
 4 15  1  5  2  0  0.0 -.519631430507D-05 -.568434188608D-12  .000000000000D+00
     .960000000000D+02 -.937500000000D-01  .472376819248D-08 -.273084750162D+01
     .316649675369D-07  .109861787641D-01  .101663172245D-04  .515374246216D+04
     .936000000000D+05  .130385160446D-06  .560788134940D+00 -.819563865662D-07
     .939435418890D+00  .170312500000D+03  .104960888541D+01 -.782532595624D-08
     .643955394756D-09  .100000000000D+01  .182600000000D+04  .000000000000D+00
     .240000000000D+01  .000000000000D+00 -.651925802231D-08  .960000000000D+02
     .864060000000D+05  .400000000000D+01
 5 15  1  5  2  0  0.0 -.297104008496D-03  .500222085975D-11  .000000000000D+00
     .290000000000D+02 -.293750000000D+01  .524986153495D-08  .404478514165D+00
    -.726431608200D-07  .404056347907D-02  .439770519733D-05  .515373823929D+04
     .936000000000D+05  .260770320892D-07  .161528868778D+01  .428408384323D-07
     .946179746264D+00  .285750000000D+03  .418987033475D+00 -.841356474446D-08
     .678599694973D-11  .100000000000D+01  .182600000000D+04  .000000000000D+00
     .240000000000D+01  .000000000000D+00 -.107102096081D-07  .290000000000D+02
     .864060000000D+05  .400000000000D+01
 6 15  1  5  2  0  0.0  .431365333498D-04  .954969436862D-11  .000000000000D+00
     .390000000000D+02  .284375000000D+01  .437053919336D-08  .286312849691D+00
     .139698386192D-06  .496232300065D-03  .998564064503D-05  .515367197418D+04
     .936000000000D+05  .447034835815D-07  .571267874411D+00 -.409781932831D-07
     .961716288829D+00  .189343750000D+03  .234455259982D+01 -.783889795014D-08
     .533236497155D-09  .100000000000D+01  .182600000000D+04  .000000000000D+00
     .240000000000D+01  .000000000000D+00  .465661287308D-08  .390000000000D+02
     .864060000000D+05  .400000000000D+01
 7 15  1  5  2  0  0.0  .428649596870D-03  .341060513165D-11  .000000000000D+00
     .840000000000D+02  .129000000000D+03  .416481633846D-08 -.310773652188D+01
     .666268169880D-05  .796563643962D-02  .805966556072D-05  .515374502182D+04
     .936000000000D+05 -.949949026108D-07 -.254337539533D+01 -.931322574615D-07
     .971868214692D+00  .231812500000D+03 -.275141165036D+01 -.776139472182D-08
     .248224625266D-09  .100000000000D+01  .182600000000D+04  .000000000000D+00
     .240000000000D+01  .000000000000D+00 -.111758708954D-07  .840000000000D+02
     .864060000000D+05  .400000000000D+01
 8 15  1  5  2  0  0.0  .170199200511D-04  .227373675443D-12  .000000000000D+00
     .460000000000D+02  .137218750000D+03  .374801326265D-08 -.188840631045D+01
     .711157917976D-05  .147721336689D-01  .687502324581D-05  .515220584106D+04
     .936000000000D+05  .152736902237D-06 -.243907807428D+01 -.162050127983D-06
     .995324637323D+00  .265687500000D+03 -.267622167094D+01 -.765746182116D-08
     .491806199988D-09  .100000000000D+01  .182600000000D+04  .000000000000D+00
     .340000000000D+01  .630000000000D+02 -.465661287308D-08  .460000000000D+02
     .864060000000D+05  .400000000000D+01
 9 15  1  5  2  0  0.0 -.459416769445D-04 -.106865627458D-10  .000000000000D+00
     .420000000000D+02  .750000000000D+00  .448018661776D-08 -.916017792846D+00
    -.147148966789D-06  .268864445388D-03  .104550272226D-04  .515367866707D+04
     .936000000000D+05 -.279396772385D-07  .266506851663D+01  .745058059692D-08
     .958778572313D+00  .178000000000D+03  .239176338152D+01 -.784354100068D-08
    -.501806616545D-09  .100000000000D+01  .182600000000D+04  .000000000000D+00
     .240000000000D+01  .000000000000D+00  .465661287308D-09  .420000000000D+02
     .864060000000D+05  .400000000000D+01
10 15  1  5  2  0  0.0 -.157384201884D-03 -.170530256582D-11  .000000000000D+00
     .146000000000D+03 -.750000000000D+00  .546665627961D-08  .736305200078D+00
     .372529029846D-08  .144888063660D-01  .463239848614D-05  .515364024162D+04
     .936000000000D+05 -.143423676491D-06  .163123703301D+01  .987201929092D-07
     .940972247980D+00  .281406250000D+03  .914178027070D+00 -.868536178018D-08
    -.123576576032D-09  .100000000000D+01  .182600000000D+04  .000000000000D+00
     .340000000000D+01  .000000000000D+00 -.325962901115D-08  .146000000000D+03
     .864060000000D+05  .400000000000D+01
12 15  1  5  2  0  0.0  .258904416114D-03  .295585778076D-11  .000000000000D+00
     .660000000000D+02 -.183437500000D+02  .416481633846D-08  .272996002529D+01
    -.107847154140D-05  .511379353702D-02  .717118382454D-06  .515375452614D+04
     .936000000000D+05 -.838190317154D-07 -.147666725632D+01 -.100582838058D-06
     .988749212619D+00  .378781250000D+03  .498422079315D+00 -.810533761985D-08
    -.109647424398D-09  .100000000000D+01  .182600000000D+04  .000000000000D+00
     .240000000000D+01  .000000000000D+00 -.121071934700D-07  .660000000000D+02
     .864060000000D+05  .400000000000D+01
13 15  1  5  2  0  0.0 -.758315436542D-04 -.341060513165D-11  .000000000000D+00
     .210000000000D+02  .183437500000D+02  .396480800731D-08 -.243995797269D+01
     .100955367088D-05  .586401554756D-02  .109095126390D-04  .515588779068D+04
     .936000000000D+05  .130385160446D-07  .277789790214D+01  .117346644402D-06
     .975681908999D+00  .176750000000D+03  .219743004460D+01 -.749888378718D-08
    -.449661587353D-09  .100000000000D+01  .182600000000D+04  .000000000000D+00
     .240000000000D+01  .000000000000D+00 -.111758708954D-07  .210000000000D+02
     .864060000000D+05  .400000000000D+01
14 15  1  5  2  0  0.0  .998303294182D-04 -.352429196937D-11  .000000000000D+00
     .780000000000D+02  .222812500000D+02  .426267755763D-08 -.518773802108D+00
     .116601586342D-05  .774235767312D-02  .112969428301D-04  .515377447701D+04
     .936000000000D+05 -.745058059692D-07  .274427978428D+01  .577419996262D-07
     .968161035450D+00  .169218750000D+03 -.196833476052D+01 -.784711257802D-08
    -.511807033103D-09  .100000000000D+01  .182600000000D+04  .000000000000D+00
     .240000000000D+01  .000000000000D+00 -.931322574615D-08  .780000000000D+02
     .864060000000D+05  .400000000000D+01
16 15  1  5  2  0  0.0 -.167602207512D-03  .306954461848D-11  .000000000000D+00
     .590000000000D+02 -.172500000000D+02  .425553440295D-08  .591651815050D+00
    -.815838575363D-06  .788938510232D-02  .236555933952D-06  .515372246361D+04
     .936000000000D+05  .465661287308D-07 -.145801834384D+01  .104308128357D-06
     .989317240303D+00  .385218750000D+03  .229008851961D+00 -.834534761723D-08
    -.189650756858D-09  .100000000000D+01  .182600000000D+04  .000000000000D+00
     .240000000000D+01  .000000000000D+00 -.102445483208D-07  .590000000000D+02
     .864060000000D+05  .400000000000D+01
